NORAD_CAT_ID,OBJECT_NAME,OBJECT_TYPE,EPOCH,MEAN_MOTION,ECCENTRICITY,INCLINATION,RA_OF_ASC_NODE,ARG_OF_PERICENTER,MEAN_ANOMALY,BSTAR,MEAN_MOTION_DOT,MEAN_MOTION_DDOT,TLE_LINE0,TLE_LINE1,TLE_LINE2,SEMIMAJOR_AXIS,PERIOD,APOGEE,PERIGEE,DECAYED
53608.0,STARLINK-4647,PAYLOAD,2023-05-29 04:07:46,15.08838528,0.0001174,53.2161,113.1461,89.3534,270.7593,4.1499e-05,3.73e-06,0.0,0 STARLINK-4647,1 53608U 22104W   23149.17206968  .00000373  00000-0  41499-4 0  9993,2 53608  53.2161 113.1461 0001174  89.3534 270.7593 15.08838528 41752,6917.885,95.438,540.562,538.938,0.0
53608.0,STARLINK-4647,PAYLOAD,2023-05-30 07:09:20,15.08840221,0.0001211,53.2162,108.0902,92.9928,267.1203,-1.5437e-05,-5.34e-06,0.0,0 STARLINK-4647,1 53608U 22104W   23150.29815061 -.00000534  00000-0 -15437-4 0  9992,2 53608  53.2162 108.0902 0001211  92.9928 267.1203 15.08840221 41925,6917.88,95.438,540.582,538.907,0.0
53608.0,STARLINK-4647,PAYLOAD,2023-05-31 03:49:20,15.08842498,0.0001247,53.2166,104.2246,93.3316,266.7819,5.8015e-05,6.36e-06,0.0,0 STARLINK-4647,1 53608U 22104W   23151.15926758  .00000636  00000-0  58015-4 0  9994,2 53608  53.2166 104.2246 0001247  93.3316 266.7819 15.08842498 42627,6917.873,95.437,540.6,538.875,0.0
53608.0,STARLINK-4647,PAYLOAD,2023-05-31 21:18:35,15.08835532,0.0001229,53.2164,100.9542,93.816,266.2973,1.6126e-05,-3.1e-07,0.0,0 STARLINK-4647,1 53608U 22104W   23151.88791448 -.00000031  00000-0  16126-4 0  9997,2 53608  53.2164 100.9542 0001229  93.8160 266.2973 15.08835532 42738,6917.894,95.438,540.609,538.909,0.0
53608.0,STARLINK-4647,PAYLOAD,2023-06-01 02:04:45,15.08836783,0.0001196,53.2164,100.0622,93.5709,266.542,2.2362e-05,6.8e-07,0.0,0 STARLINK-4647,1 53608U 22104W   23152.08663391  .00000068  00000-0  22362-4 0  9993,2 53608  53.2164 100.0622 0001196  93.5709 266.5420 15.08836783 42196,6917.89,95.438,540.583,538.928,0.0
53608.0,STARLINK-4647,PAYLOAD,2023-06-01 05:15:31,15.08841581,0.0001174,53.2163,99.4681,94.5996,265.513,3.5619e-05,2.79e-06,0.0,0 STARLINK-4647,1 53608U 22104W   23152.21911061  .00000279  00000-0  35619-4 0  9991,2 53608  53.2163  99.4681 0001174  94.5996 265.5130 15.08841581 42780,6917.876,95.437,540.553,538.928,0.0
53608.0,STARLINK-4647,PAYLOAD,2023-06-02 05:06:18,15.08839426,0.0001163,53.216,95.0093,104.0128,256.0994,7.4885e-06,-1.69e-06,0.0,0 STARLINK-4647,1 53608U 22104W   23153.21271515 -.00000169  00000-0  74885-5 0  9993,2 53608  53.2160  95.0093 0001163 104.0128 256.0994 15.08839426 42360,6917.882,95.438,540.552,538.943,0.0
53608.0,STARLINK-4647,PAYLOAD,2023-06-03 04:57:05,15.08839808,0.0001171,53.2169,90.5462,101.1213,258.9911,5.35e-05,5.64e-06,0.0,0 STARLINK-4647,1 53608U 22104W   23154.20631604  .00000564  00000-0  53500-4 0  9990,2 53608  53.2169  90.5462 0001171 101.1213 258.9911 15.08839808 43085,6917.881,95.438,540.556,538.936,0.0
53608.0,STARLINK-4647,PAYLOAD,2023-06-04 01:37:06,15.08838405,0.0001132,53.2169,86.6807,98.2067,261.9054,3.6768e-05,2.97e-06,0.0,0 STARLINK-4647,1 53608U 22104W   23155.06743978  .00000297  00000-0  36768-4 0  9993,2 53608  53.2169  86.6807 0001132  98.2067 261.9054 15.08838405 42649,6917.885,95.438,540.533,538.967,0.0
53608.0,STARLINK-4647,PAYLOAD,2023-06-04 04:47:52,15.0884134,0.0001206,53.217,86.0851,99.647,260.4659,5.8906e-05,6.5e-06,0.0,0 STARLINK-4647,1 53608U 22104W   23155.19991703  .00000650  00000-0  58906-4 0  9999,2 53608  53.2170  86.0851 0001206  99.6470 260.4659 15.08841340 43232,6917.876,95.437,540.576,538.907,0.0
53608.0,STARLINK-4647,PAYLOAD,2023-06-04 19:06:21,15.08837019,0.0001209,53.2169,83.4097,96.3502,263.7628,-5.4932e-06,-3.75e-06,0.0,0 STARLINK-4647,1 53608U 22104W   23155.79608318 -.00000375  00000-0 -54932-5 0  9994,2 53608  53.2169  83.4097 0001209  96.3502 263.7628 15.08837019 43326,6917.89,95.438,540.591,538.918,0.0
53608.0,STARLINK-4647,PAYLOAD,2023-06-05 04:38:39,15.08840127,0.000121,53.2169,81.6261,113.2513,246.8607,0.00015198,2.132e-05,0.0,0 STARLINK-4647,1 53608U 22104W   23156.19351471  .00002132  00000-0  15198-3 0  9994,2 53608  53.2169  81.6261 0001210 113.2513 246.8607 15.08840127 42818,6917.88,95.438,540.582,538.908,0.0
53608.0,STARLINK-4647,PAYLOAD,2023-06-05 12:35:35,15.088421,0.0001249,53.2176,80.1414,87.9787,272.1349,1.1748e-05,-1.01e-06,0.0,0 STARLINK-4647,1 53608U 22104W   23156.52471904 -.00000101  00000-0  11748-4 0  9998,2 53608  53.2176  80.1414 0001249  87.9787 272.1349 15.08842100 43439,6917.874,95.437,540.603,538.875,0.0
53608.0,STARLINK-4647,PAYLOAD,2023-06-06 01:18:40,15.08841564,0.0001245,53.2175,77.7607,99.6449,260.4683,2.4546e-06,-2.49e-06,0.0,0 STARLINK-4647,1 53608U 22104W   23157.05464038 -.00000249  00000-0  24546-5 0  9991,2 53608  53.2175  77.7607 0001245  99.6449 260.4683 15.08841564 42944,6917.876,95.437,540.602,538.879,0.0
53608.0,STARLINK-4647,PAYLOAD,2023-06-07 04:20:13,15.08848492,0.0001223,53.2181,72.7047,103.0863,257.0266,4.1746e-05,3.77e-06,0.0,0 STARLINK-4647,1 53608U 22104W   23158.18071309  .00000377  00000-0  41746-4 0  9992,2 53608  53.2181  72.7047 0001223 103.0863 257.0266 15.08848492 43116,6917.854,95.437,540.565,538.873,0.0
53608.0,STARLINK-4647,PAYLOAD,2023-06-07 21:49:29,15.08831966,0.0001251,53.2174,69.4339,106.7813,253.3316,-1.7023e-05,-5.59e-06,0.0,0 STARLINK-4647,1 53608U 22104W   23158.90936684 -.00000559  00000-0 -17023-4 0  9993,2 53608  53.2174  69.4339 0001251 106.7813 253.3316 15.08831966 43798,6917.905,95.438,540.635,538.905,0.0
53608.0,STARLINK-4647,PAYLOAD,2023-06-08 01:00:15,15.08835821,0.0001107,53.218,68.8398,101.0086,259.1031,2.2218e-05,6.6e-07,0.0,0 STARLINK-4647,1 53608U 22104W   23159.04184365  .00000066  00000-0  22218-4 0  9993,2 53608  53.2180  68.8398 0001107 101.0086 259.1031 15.08835821 43245,6917.893,95.438,540.524,538.992,0.0
53608.0,STARLINK-4647,PAYLOAD,2023-06-08 04:11:01,15.08841302,0.0001094,53.2178,68.2444,99.5246,260.587,1.4482e-05,-5.7e-07,0.0,0 STARLINK-4647,1 53608U 22104W   23159.17432070 -.00000057  00000-0  14482-4 0  9991,2 53608  53.2178  68.2444 0001094  99.5246 260.5870 15.08841302 43835,6917.876,95.437,540.498,538.985,0.0
53608.0,STARLINK-4647,PAYLOAD,2023-06-09 10:23:21,15.08842442,9.92e-05,53.2178,62.5942,96.0287,264.0818,-9.3095e-06,-4.36e-06,0.0,0 STARLINK-4647,1 53608U 22104W   23160.43288306 -.00000436  00000-0 -93095-5 0  9993,2 53608  53.2178  62.5942 0000992  96.0287 264.0818 15.08842442 43453,6917.873,95.437,540.424,539.052,0.0
53608.0,STARLINK-4647,PAYLOAD,2023-06-09 16:44:54,15.08829236,0.0001055,53.2171,61.4065,102.5225,257.5885,4.3221e-05,4e-06,0.0,0 STARLINK-4647,1 53608U 22104W   23160.69785073  .00000400  00000-0  43221-4 0  9998,2 53608  53.2171  61.4065 0001055 102.5225 257.5885 15.08829236 43497,6917.913,95.438,540.508,539.048,0.0
53608.0,STARLINK-4647,PAYLOAD,2023-06-10 02:17:12,15.08836781,0.0001138,53.2183,59.6224,95.2237,264.8885,5.795e-05,6.35e-06,0.0,0 STARLINK-4647,1 53608U 22104W   23161.09528658  .00000635  00000-0  57950-4 0  9991,2 53608  53.2183  59.6224 0001138  95.2237 264.8885 15.08836781 43550,6917.89,95.438,540.542,538.968,0.0
53608.0,STARLINK-4647,PAYLOAD,2023-06-10 10:14:08,15.08841196,0.0001246,53.2188,58.1354,90.0983,270.0152,2.0141e-05,3.3e-07,0.0,0 STARLINK-4647,1 53608U 22104W   23161.42648708  .00000033  00000-0  20141-4 0  9991,2 53608  53.2188  58.1354 0001246  90.0983 270.0152 15.08841196 44175,6917.877,95.437,540.604,538.88,0.0
53608.0,STARLINK-4647,PAYLOAD,2023-06-11 10:04:55,15.08839251,0.0001183,53.2188,53.6732,85.8546,274.2582,2.8853e-05,1.71e-06,0.0,0 STARLINK-4647,1 53608U 22104W   23162.42008903  .00000171  00000-0  28853-4 0  9990,2 53608  53.2188  53.6732 0001183  85.8546 274.2582 15.08839251 43757,6917.883,95.438,540.566,538.929,0.0
53608.0,STARLINK-4647,PAYLOAD,2023-06-11 22:48:00,15.08837803,0.0001097,53.218,51.296,83.1245,276.9872,6.8428e-05,8.01e-06,0.0,0 STARLINK-4647,1 53608U 22104W   23162.95000922  .00000801  00000-0  68428-4 0  9993,2 53608  53.2180  51.2960 0001097  83.1245 276.9872 15.08837803 44402,6917.887,95.438,540.511,538.993,0.0
53608.0,STARLINK-4647,PAYLOAD,2023-06-12 09:55:42,15.08844002,0.0001098,53.2181,49.2142,81.2255,278.8861,3.6061e-05,2.86e-06,0.0,0 STARLINK-4647,1 53608U 22104W   23163.41368543  .00000286  00000-0  36061-4 0  9996,2 53608  53.2181  49.2142 0001098  81.2255 278.8861 15.08844002 44478,6917.868,95.437,540.493,538.974,0.0
53608.0,STARLINK-4647,PAYLOAD,2023-06-12 19:28:01,15.08838009,0.0001094,53.2179,47.4301,85.3708,274.7409,9.3166e-06,-1.4e-06,0.0,0 STARLINK-4647,1 53608U 22104W   23163.81113002 -.00000140  00000-0  93166-5 0  9998,2 53608  53.2179  47.4301 0001094  85.3708 274.7409 15.08838009 43962,6917.886,95.438,540.508,538.995,0.0
53608.0,STARLINK-4647,PAYLOAD,2023-06-12 22:38:47,15.08839053,0.0001062,53.2177,46.8351,85.55,274.5614,2.0908e-05,4.5e-07,0.0,0 STARLINK-4647,1 53608U 22104W   23163.94360868  .00000045  00000-0  20908-4 0  9992,2 53608  53.2177  46.8351 0001062  85.5500 274.5614 15.08839053 44557,6917.883,95.438,540.483,539.014,0.0
53608.0,STARLINK-4647,PAYLOAD,2023-06-13 22:29:34,15.08838077,0.0001123,53.2173,42.3764,76.1006,284.0111,4.0014e-05,3.49e-06,0.0,0 STARLINK-4647,1 53608U 22104W   23164.93720891  .00000349  00000-0  40014-4 0  9995,2 53608  53.2173  42.3764 0001123  76.1006 284.0111 15.08838077 44707,6917.886,95.438,540.528,538.974,0.0
53608.0,STARLINK-4647,PAYLOAD,2023-06-14 19:09:35,15.08834724,0.0001125,53.2178,38.5093,82.258,277.854,1.4449e-05,-5.8e-07,0.0,0 STARLINK-4647,1 53608U 22104W   23165.79833222 -.00000058  00000-0  14449-4 0  9994,2 53608  53.2178  38.5093 0001125  82.2580 277.8540 15.08834724 44836,6917.897,95.438,540.54,538.983,0.0
53608.0,STARLINK-4647,PAYLOAD,2023-06-14 22:20:22,15.08836019,0.000124,53.2179,37.9134,86.2781,273.8353,1.6715e-05,-2.2e-07,0.0,0 STARLINK-4647,1 53608U 22104W   23165.93081137 -.00000022  00000-0  16715-4 0  9999,2 53608  53.2179  37.9134 0001240  86.2781 273.8353 15.08836019 44850,6917.893,95.438,540.615,538.9,0.0
